{
  "type": "FeatureCollection",
  "crs": {
    "type": "name",
    "properties": {
      "name": "EPSG:4326"
    }
  },
  "features": [
    {
      "type": "Feature",
      "geometry": {
        "type": "LineString",
        "coordinates": [
          [
            -75.67063766996559,
            4.0
          ],
          [
            -75.75,
            4.178686003503991
          ],
          [
            -75.85832466598586,
            4.0
          ]
        ]
      },
      "properties": {
        "presion_hPa": 760.0,
        "label": "760 hPa"
      }
    },
    {
      "type": "Feature",
      "geometry": {
        "type": "LineString",
        "coordinates": [
          [
            -75.25,
            5.110486442061601
          ],
          [
            -75.41603417263701,
            5.0
          ],
          [
            -75.5,
            4.847728160982894
          ],
          [
            -75.51170375997691,
            4.75
          ],
          [
            -75.5923200836954,
            4.5
          ],
          [
            -75.5,
            4.379524347515314
          ],
          [
            -75.35473826383135,
            4.5
          ],
          [
            -75.25,
            4.626441049600669
          ],
          [
            -75.20058803486603,
            4.75
          ],
          [
            -75.2169892451263,
            5.0
          ],
          [
            -75.25,
            5.1104864420616005
          ]
        ]
      },
      "properties": {
        "presion_hPa": 760.0,
        "label": "760 hPa"
      }
    },
    {
      "type": "Feature",
      "geometry": {
        "type": "LineString",
        "coordinates": [
          [
            -75.57620049455015,
            4.0
          ],
          [
            -75.64336296098982,
            4.25
          ],
          [
            -75.5,
            4.311119503062853
          ],
          [
            -75.272260134329,
            4.5
          ],
          [
            -75.25,
            4.526872650413066
          ],
          [
            -75.16077003501087,
            4.75
          ],
          [
            -75.17198775093607,
            5.0
          ],
          [
            -75.24637104090341,
            5.25
          ],
          [
            -75.25,
            5.268252459749553
          ],
          [
            -75.32509386344422,
            5.25
          ],
          [
            -75.5,
            5.196383723899282
          ],
          [
            -75.54079342561704,
            5.0
          ],
          [
            -75.56086147210306,
            4.75
          ],
          [
            -75.64473848388481,
            4.500000000000001
          ],
          [
            -75.75,
            4.3121659456058685
          ],
          [
            -75.79746302174279,
            4.25
          ],
          [
            -75.98722556240726,
            4.0
          ]
        ]
      },
      "properties": {
        "presion_hPa": 780.0,
        "label": "780 hPa"
      }
    },
    {
      "type": "Feature",
      "geometry": {
        "type": "LineString",
        "coordinates": [
          [
            -75.53539956260111,
            5.5
          ],
          [
            -75.56939685679453,
            5.25
          ],
          [
            -75.60564428921332,
            5.0
          ],
          [
            -75.6100191842292,
            4.75
          ],
          [
            -75.6971568840742,
            4.5
          ],
          [
            -75.75,
            4.405704030518628
          ],
          [
            -75.86887832983027,
            4.25
          ],
          [
            -76.0,
            4.082290506343934
          ],
          [
            -76.06404145428418,
            4.0
          ]
        ]
      },
      "properties": {
        "presion_hPa": 800.0,
        "label": "800 hPa"
      }
    },
    {
      "type": "Feature",
      "geometry": {
        "type": "LineString",
        "coordinates": [
          [
            -75.49049337459812,
            4.0
          ],
          [
            -75.49121865422649,
            4.25
          ],
          [
            -75.25,
            4.4500704567500735
          ],
          [
            -75.22084630315106,
            4.5
          ],
          [
            -75.12095203515572,
            4.75
          ],
          [
            -75.12698625674582,
            5.0
          ],
          [
            -75.19715381823993,
            5.25
          ],
          [
            -75.24622327142386,
            5.5
          ]
        ]
      },
      "properties": {
        "presion_hPa": 800.0,
        "label": "800 hPa"
      }
    },
    {
      "type": "Feature",
      "geometry": {
        "type": "LineString",
        "coordinates": [
          [
            -75.68582658658093,
            5.5
          ],
          [
            -75.6531829404497,
            5.25
          ],
          [
            -75.6704951528096,
            5.0
          ],
          [
            -75.65917689635535,
            4.75
          ],
          [
            -75.7495752842636,
            4.5
          ],
          [
            -75.75,
            4.499242115431386
          ],
          [
            -75.94029363791776,
            4.25
          ],
          [
            -76.0,
            4.173633341919025
          ],
          [
            -76.1351277592368,
            4.0
          ]
        ]
      },
      "properties": {
        "presion_hPa": 820.0,
        "label": "820 hPa"
      }
    },
    {
      "type": "Feature",
      "geometry": {
        "type": "LineString",
        "coordinates": [
          [
            -75.44126408461284,
            4.0
          ],
          [
            -75.4087672549582,
            4.25
          ],
          [
            -75.25,
            4.381683999806327
          ],
          [
            -75.18091567481885,
            4.5
          ],
          [
            -75.08113403530055,
            4.75
          ],
          [
            -75.08198476255559,
            5.0
          ],
          [
            -75.14793659557645,
            5.25
          ],
          [
            -75.1870467582583,
            5.5
          ]
        ]
      },
      "properties": {
        "presion_hPa": 820.0,
        "label": "820 hPa"
      }
    },
    {
      "type": "Feature",
      "geometry": {
        "type": "LineString",
        "coordinates": [
          [
            -76.0121776477079,
            5.5
          ],
          [
            -76.0,
            5.3955632678332845
          ],
          [
            -75.75,
            5.303341609029859
          ],
          [
            -75.73696902410487,
            5.25
          ],
          [
            -75.73534601640587,
            5.0
          ],
          [
            -75.70833460848151,
            4.75
          ],
          [
            -75.75,
            4.634806523968001
          ],
          [
            -75.82360140905287,
            4.5
          ],
          [
            -76.0,
            4.266129681135193
          ],
          [
            -76.02787433848708,
            4.25
          ],
          [
            -76.20621406418941,
            4.0
          ]
        ]
      },
      "properties": {
        "presion_hPa": 840.0,
        "label": "840 hPa"
      }
    },
    {
      "type": "Feature",
      "geometry": {
        "type": "LineString",
        "coordinates": [
          [
            -76.42767879150675,
            4.0
          ],
          [
            -76.5,
            4.050142332594408
          ]
        ]
      },
      "properties": {
        "presion_hPa": 840.0,
        "label": "840 hPa"
      }
    },
    {
      "type": "Feature",
      "geometry": {
        "type": "LineString",
        "coordinates": [
          [
            -75.39203479462756,
            4.0
          ],
          [
            -75.32631585568991,
            4.25
          ],
          [
            -75.25,
            4.313297542862581
          ],
          [
            -75.14098504648662,
            4.5
          ],
          [
            -75.0413160354454,
            4.75
          ],
          [
            -75.03698326836536,
            5.0
          ],
          [
            -75.09871937291298,
            5.250000000000001
          ],
          [
            -75.12787024509277,
            5.5
          ]
        ]
      },
      "properties": {
        "presion_hPa": 840.0,
        "label": "840 hPa"
      }
    },
    {
      "type": "Feature",
      "geometry": {
        "type": "LineString",
        "coordinates": [
          [
            -76.07443284843382,
            5.5
          ],
          [
            -76.0951656540877,
            5.25
          ],
          [
            -76.21666449596249,
            5.0
          ],
          [
            -76.0,
            4.980362935402079
          ],
          [
            -75.77836084825302,
            4.75
          ],
          [
            -75.89780403875348,
            4.5
          ],
          [
            -76.0,
            4.364507976423796
          ],
          [
            -76.19788575282764,
            4.25
          ],
          [
            -76.25,
            4.139030178223422
          ],
          [
            -76.49942885522722,
            4.25
          ],
          [
            -76.5,
            4.250073537687105
          ]
        ]
      },
      "properties": {
        "presion_hPa": 860.0,
        "label": "860 hPa"
      }
    },
    {
      "type": "Feature",
      "geometry": {
        "type": "LineString",
        "coordinates": [
          [
            -75.0,
            5.037622885746542
          ],
          [
            -75.04950215024951,
            5.25
          ],
          [
            -75.06869373192721,
            5.5
          ]
        ]
      },
      "properties": {
        "presion_hPa": 860.0,
        "label": "860 hPa"
      }
    },
    {
      "type": "Feature",
      "geometry": {
        "type": "LineString",
        "coordinates": [
          [
            -75.34280550464229,
            4.0
          ],
          [
            -75.25,
            4.240506388253836
          ],
          [
            -75.24468314751387,
            4.25
          ],
          [
            -75.1010544181544,
            4.5
          ],
          [
            -75.00149803559026,
            4.750000000000001
          ],
          [
            -75.0,
            4.793584630831671
          ]
        ]
      },
      "properties": {
        "presion_hPa": 860.0,
        "label": "860 hPa"
      }
    },
    {
      "type": "Feature",
      "geometry": {
        "type": "LineString",
        "coordinates": [
          [
            -76.25,
            4.987783049488315
          ],
          [
            -76.26709166676387,
            4.75
          ],
          [
            -76.25,
            4.6469357861939695
          ],
          [
            -76.19916019643382,
            4.75
          ],
          [
            -76.25,
            4.987783049488315
          ]
        ]
      },
      "properties": {
        "presion_hPa": 860.0,
        "label": "860 hPa"
      }
    },
    {
      "type": "Feature",
      "geometry": {
        "type": "LineString",
        "coordinates": [
          [
            -76.13668804915972,
            5.5
          ],
          [
            -76.22600235736053,
            5.249999999999999
          ],
          [
            -76.25,
            5.210734379859041
          ],
          [
            -76.2985036630257,
            5.0
          ],
          [
            -76.32330393945652,
            4.75
          ],
          [
            -76.32255510147928,
            4.5
          ],
          [
            -76.5,
            4.354842360777171
          ]
        ]
      },
      "properties": {
        "presion_hPa": 880.0,
        "label": "880 hPa"
      }
    },
    {
      "type": "Feature",
      "geometry": {
        "type": "LineString",
        "coordinates": [
          [
            -75.0,
            5.248777586464653
          ],
          [
            -75.00028492758604,
            5.25
          ],
          [
            -75.00951721876169,
            5.5
          ]
        ]
      },
      "properties": {
        "presion_hPa": 880.0,
        "label": "880 hPa"
      }
    },
    {
      "type": "Feature",
      "geometry": {
        "type": "LineString",
        "coordinates": [
          [
            -75.29357621465701,
            4.0
          ],
          [
            -75.25,
            4.112928193659712
          ],
          [
            -75.17323358129612,
            4.25
          ],
          [
            -75.06112378982218,
            4.5
          ],
          [
            -75.0,
            4.653496917796481
          ]
        ]
      },
      "properties": {
        "presion_hPa": 880.0,
        "label": "880 hPa"
      }
    },
    {
      "type": "Feature",
      "geometry": {
        "type": "LineString",
        "coordinates": [
          [
            -76.0,
            4.786961074098032
          ],
          [
            -75.96443863203754,
            4.75
          ],
          [
            -75.9720066684541,
            4.5
          ],
          [
            -76.0,
            4.462886271712398
          ],
          [
            -76.09993290326753,
            4.5
          ],
          [
            -76.03195468387707,
            4.75
          ],
          [
            -76.0,
            4.786961074098032
          ]
        ]
      },
      "properties": {
        "presion_hPa": 880.0,
        "label": "880 hPa"
      }
    },
    {
      "type": "Feature",
      "geometry": {
        "type": "LineString",
        "coordinates": [
          [
            -76.19894324988563,
            5.5
          ],
          [
            -76.25,
            5.374729869572919
          ],
          [
            -76.2896117727104,
            5.25
          ],
          [
            -76.34777707270715,
            5.0
          ],
          [
            -76.37951621214918,
            4.75
          ],
          [
            -76.4506275424537,
            4.5
          ],
          [
            -76.5,
            4.4596111838672385
          ]
        ]
      },
      "properties": {
        "presion_hPa": 900.0,
        "label": "900 hPa"
      }
    },
    {
      "type": "Feature",
      "geometry": {
        "type": "LineString",
        "coordinates": [
          [
            -75.24179824037512,
            4.0
          ],
          [
            -75.10178401507837,
            4.25
          ],
          [
            -75.02119316148995,
            4.499999999999999
          ],
          [
            -75.0,
            4.5532212576565465
          ]
        ]
      },
      "properties": {
        "presion_hPa": 900.0,
        "label": "900 hPa"
      }
    }
  ]
}