{
  "type": "FeatureCollection",
  "crs": {
    "type": "name",
    "properties": {
      "name": "EPSG:4326"
    }
  },
  "features": [
    {
      "type": "Feature",
      "geometry": {
        "type": "LineString",
        "coordinates": [
          [
            -75.5,
            4.504860919878645
          ],
          [
            -75.50114604551851,
            4.5
          ],
          [
            -75.5,
            4.498724194103706
          ],
          [
            -75.49830207100075,
            4.5
          ],
          [
            -75.5,
            4.504860919878644
          ]
        ]
      },
      "properties": {
        "temperatura_C": 13.0,
        "label": "13 \u00b0C"
      }
    },
    {
      "type": "Feature",
      "geometry": {
        "type": "LineString",
        "coordinates": [
          [
            -75.74812277087842,
            4.0
          ],
          [
            -75.75,
            4.004641251591343
          ],
          [
            -75.75319374350677,
            4.0
          ]
        ]
      },
      "properties": {
        "temperatura_C": 14.0,
        "label": "14 \u00b0C"
      }
    },
    {
      "type": "Feature",
      "geometry": {
        "type": "LineString",
        "coordinates": [
          [
            -75.25,
            4.909963593706327
          ],
          [
            -75.42697718075944,
            4.75
          ],
          [
            -75.25,
            4.712071761486775
          ],
          [
            -75.23494586850909,
            4.75
          ],
          [
            -75.25000000000001,
            4.909963593706328
          ]
        ]
      },
      "properties": {
        "temperatura_C": 14.0,
        "label": "14 \u00b0C"
      }
    },
    {
      "type": "Feature",
      "geometry": {
        "type": "LineString",
        "coordinates": [
          [
            -75.5,
            4.7128950377787175
          ],
          [
            -75.55019366911003,
            4.5
          ],
          [
            -75.5,
            4.444123180124151
          ],
          [
            -75.42563533909932,
            4.5
          ],
          [
            -75.5,
            4.7128950377787175
          ]
        ]
      },
      "properties": {
        "temperatura_C": 14.0,
        "label": "14 \u00b0C"
      }
    },
    {
      "type": "Feature",
      "geometry": {
        "type": "LineString",
        "coordinates": [
          [
            -75.6778196385025,
            4.0
          ],
          [
            -75.75,
            4.178458353225122
          ],
          [
            -75.87280097202775,
            4.0
          ]
        ]
      },
      "properties": {
        "temperatura_C": 15.0,
        "label": "15 \u00b0C"
      }
    },
    {
      "type": "Feature",
      "geometry": {
        "type": "LineString",
        "coordinates": [
          [
            -75.5,
            5.012724398932181
          ],
          [
            -75.50366111235827,
            5.0
          ],
          [
            -75.53779807124333,
            4.75
          ],
          [
            -75.59924129270155,
            4.5
          ],
          [
            -75.5,
            4.389522166144597
          ],
          [
            -75.35296860719787,
            4.5
          ],
          [
            -75.25,
            4.624329955567457
          ],
          [
            -75.20012018887468,
            4.75
          ],
          [
            -75.22007277724127,
            5.0
          ],
          [
            -75.25,
            5.098055550200375
          ],
          [
            -75.5,
            5.012724398932181
          ]
        ]
      },
      "properties": {
        "temperatura_C": 15.0,
        "label": "15 \u00b0C"
      }
    },
    {
      "type": "Feature",
      "geometry": {
        "type": "LineString",
        "coordinates": [
          [
            -75.60751650612656,
            4.0
          ],
          [
            -75.68137972146656,
            4.25
          ],
          [
            -75.75,
            4.305257312968731
          ],
          [
            -75.79184248225432,
            4.25
          ],
          [
            -75.99240820054871,
            4.0
          ]
        ]
      },
      "properties": {
        "temperatura_C": 16.0,
        "label": "16 \u00b0C"
      }
    },
    {
      "type": "Feature",
      "geometry": {
        "type": "LineString",
        "coordinates": [
          [
            -75.5,
            5.2326508730983035
          ],
          [
            -75.56693919227176,
            5.0
          ],
          [
            -75.58380127285164,
            4.75
          ],
          [
            -75.64828891629307,
            4.5
          ],
          [
            -75.5,
            4.334921152165043
          ],
          [
            -75.28030187529644,
            4.5
          ],
          [
            -75.25,
            4.5365881496481375
          ],
          [
            -75.16529450924027,
            4.75
          ],
          [
            -75.18052280184081,
            5.0
          ],
          [
            -75.25,
            5.227639729446362
          ],
          [
            -75.5,
            5.2326508730983035
          ]
        ]
      },
      "properties": {
        "temperatura_C": 16.0,
        "label": "16 \u00b0C"
      }
    },
    {
      "type": "Feature",
      "geometry": {
        "type": "LineString",
        "coordinates": [
          [
            -75.53721337375063,
            4.0
          ],
          [
            -75.56475958084299,
            4.25
          ],
          [
            -75.5,
            4.2803201381854885
          ],
          [
            -75.25,
            4.468175323139253
          ],
          [
            -75.22962690279813,
            4.5
          ],
          [
            -75.13046882960586,
            4.75
          ],
          [
            -75.14097282644036,
            5.0
          ],
          [
            -75.21389525746372,
            5.25
          ],
          [
            -75.25,
            5.40553519135181
          ],
          [
            -75.50000000000001,
            5.493032545986706
          ],
          [
            -75.5771744501271,
            5.25
          ],
          [
            -75.63021727218525,
            5.0
          ],
          [
            -75.62980447445997,
            4.75
          ],
          [
            -75.69733653988459,
            4.5
          ],
          [
            -75.75,
            4.399167098044202
          ],
          [
            -75.86295376697697,
            4.25
          ],
          [
            -76.0,
            4.081757493895787
          ],
          [
            -76.07580744867894,
            4.0
          ]
        ]
      },
      "properties": {
        "temperatura_C": 17.0,
        "label": "17 \u00b0C"
      }
    },
    {
      "type": "Feature",
      "geometry": {
        "type": "LineString",
        "coordinates": [
          [
            -75.64464911375876,
            5.5
          ],
          [
            -75.66095827364617,
            5.25
          ],
          [
            -75.69349535209874,
            5.0
          ],
          [
            -75.67580767606827,
            4.75
          ],
          [
            -75.74638416347611,
            4.5
          ],
          [
            -75.75,
            4.493076883119675
          ],
          [
            -75.93406505169962,
            4.25
          ],
          [
            -76.0,
            4.169056068180698
          ],
          [
            -76.15675271588935,
            4.0
          ]
        ]
      },
      "properties": {
        "temperatura_C": 18.0,
        "label": "18 \u00b0C"
      }
    },
    {
      "type": "Feature",
      "geometry": {
        "type": "LineString",
        "coordinates": [
          [
            -75.48237820029244,
            4.0
          ],
          [
            -75.46769593954993,
            4.25
          ],
          [
            -75.25,
            4.413587736950738
          ],
          [
            -75.19468174988108,
            4.5
          ],
          [
            -75.09564314997147,
            4.75
          ],
          [
            -75.1014228510399,
            5.0
          ],
          [
            -75.17026130039659,
            5.25
          ],
          [
            -75.22444916087802,
            5.5
          ]
        ]
      },
      "properties": {
        "temperatura_C": 18.0,
        "label": "18 \u00b0C"
      }
    },
    {
      "type": "Feature",
      "geometry": {
        "type": "LineString",
        "coordinates": [
          [
            -75.9342747508723,
            5.5
          ],
          [
            -75.75,
            5.294360492708603
          ],
          [
            -75.74474209716526,
            5.25
          ],
          [
            -75.75,
            5.1576025296833405
          ],
          [
            -75.77110586440739,
            5.0
          ],
          [
            -75.75,
            4.96282254773627
          ],
          [
            -75.72181087767659,
            4.75
          ],
          [
            -75.75,
            4.650463439178488
          ],
          [
            -75.81727217166727,
            4.5
          ],
          [
            -76.0,
            4.257029531251612
          ],
          [
            -76.01438353273193,
            4.25
          ],
          [
            -76.23769798309975,
            4.0
          ]
        ]
      },
      "properties": {
        "temperatura_C": 19.0,
        "label": "19 \u00b0C"
      }
    },
    {
      "type": "Feature",
      "geometry": {
        "type": "LineString",
        "coordinates": [
          [
            -76.30824702628101,
            4.0
          ],
          [
            -76.5,
            4.104099698235288
          ]
        ]
      },
      "properties": {
        "temperatura_C": 19.0,
        "label": "19 \u00b0C"
      }
    },
    {
      "type": "Feature",
      "geometry": {
        "type": "LineString",
        "coordinates": [
          [
            -75.44493858849076,
            4.0
          ],
          [
            -75.39505298913947,
            4.25
          ],
          [
            -75.25,
            4.359000150762224
          ],
          [
            -75.15973659696405,
            4.5
          ],
          [
            -75.06081747033704,
            4.75
          ],
          [
            -75.06187287563945,
            5.0
          ],
          [
            -75.12662734332946,
            5.25
          ],
          [
            -75.17308531824563,
            5.5
          ]
        ]
      },
      "properties": {
        "temperatura_C": 19.0,
        "label": "19 \u00b0C"
      }
    },
    {
      "type": "Feature",
      "geometry": {
        "type": "LineString",
        "coordinates": [
          [
            -76.06857328320162,
            5.500000000000001
          ],
          [
            -76.09298096472894,
            5.25
          ],
          [
            -76.0,
            5.051367702299114
          ],
          [
            -75.96827896250655,
            4.999999999999999
          ],
          [
            -75.80311940412537,
            4.75
          ],
          [
            -75.88989841789459,
            4.5
          ],
          [
            -76.0,
            4.353599567957539
          ],
          [
            -76.21198110135559,
            4.25
          ],
          [
            -76.25,
            4.20376757845799
          ],
          [
            -76.34793101841424,
            4.249999999999999
          ],
          [
            -76.5,
            4.284401801942676
          ]
        ]
      },
      "properties": {
        "temperatura_C": 20.0,
        "label": "20 \u00b0C"
      }
    },
    {
      "type": "Feature",
      "geometry": {
        "type": "LineString",
        "coordinates": [
          [
            -75.40749897668907,
            4.0
          ],
          [
            -75.32241003872902,
            4.25
          ],
          [
            -75.25,
            4.30441256457371
          ],
          [
            -75.12479144404702,
            4.5
          ],
          [
            -75.02599179070263,
            4.749999999999999
          ],
          [
            -75.02232290023899,
            5.0
          ],
          [
            -75.08299338626232,
            5.25
          ],
          [
            -75.12172147561323,
            5.5
          ]
        ]
      },
      "properties": {
        "temperatura_C": 20.0,
        "label": "20 \u00b0C"
      }
    },
    {
      "type": "Feature",
      "geometry": {
        "type": "LineString",
        "coordinates": [
          [
            -76.25,
            4.833189108541589
          ],
          [
            -76.25590752236346,
            4.75
          ],
          [
            -76.25,
            4.715277539925458
          ],
          [
            -76.23600966520551,
            4.75
          ],
          [
            -76.25,
            4.833189108541589
          ]
        ]
      },
      "properties": {
        "temperatura_C": 20.0,
        "label": "20 \u00b0C"
      }
    },
    {
      "type": "Feature",
      "geometry": {
        "type": "LineString",
        "coordinates": [
          [
            -76.14508545100162,
            5.5
          ],
          [
            -76.2424442756779,
            5.250000000000001
          ],
          [
            -76.25,
            5.235637739840641
          ],
          [
            -76.29766721739314,
            5.0
          ],
          [
            -76.32534309347251,
            4.75
          ],
          [
            -76.33783238551756,
            4.5
          ],
          [
            -76.5,
            4.399546220022893
          ]
        ]
      },
      "properties": {
        "temperatura_C": 21.0,
        "label": "21 \u00b0C"
      }
    },
    {
      "type": "Feature",
      "geometry": {
        "type": "LineString",
        "coordinates": [
          [
            -75.0,
            5.081409392623645
          ],
          [
            -75.03935942919519,
            5.250000000000001
          ],
          [
            -75.07035763298083,
            5.5
          ]
        ]
      },
      "properties": {
        "temperatura_C": 21.0,
        "label": "21 \u00b0C"
      }
    },
    {
      "type": "Feature",
      "geometry": {
        "type": "LineString",
        "coordinates": [
          [
            -75.3700593648874,
            4.0
          ],
          [
            -75.25,
            4.24975028818615
          ],
          [
            -75.24976061005842,
            4.25
          ],
          [
            -75.08984629112997,
            4.5
          ],
          [
            -75.0,
            4.727550017893678
          ]
        ]
      },
      "properties": {
        "temperatura_C": 21.0,
        "label": "21 \u00b0C"
      }
    },
    {
      "type": "Feature",
      "geometry": {
        "type": "LineString",
        "coordinates": [
          [
            -76.0,
            4.835384197457691
          ],
          [
            -75.94029532089381,
            4.75
          ],
          [
            -75.9625246641219,
            4.5
          ],
          [
            -76.0,
            4.450169604663465
          ],
          [
            -76.13049933721422,
            4.5
          ],
          [
            -76.07157069626113,
            4.75
          ],
          [
            -76.0,
            4.835384197457691
          ]
        ]
      },
      "properties": {
        "temperatura_C": 21.0,
        "label": "21 \u00b0C"
      }
    },
    {
      "type": "Feature",
      "geometry": {
        "type": "LineString",
        "coordinates": [
          [
            -76.22159761880161,
            5.5
          ],
          [
            -76.25,
            5.4297295521275775
          ],
          [
            -76.30041124257478,
            5.25
          ],
          [
            -76.35513920751514,
            5.0
          ],
          [
            -76.39477866458157,
            4.75
          ],
          [
            -76.5,
            4.519413747827631
          ]
        ]
      },
      "properties": {
        "temperatura_C": 22.0,
        "label": "22 \u00b0C"
      }
    },
    {
      "type": "Feature",
      "geometry": {
        "type": "LineString",
        "coordinates": [
          [
            -75.0,
            5.302358534805107
          ],
          [
            -75.01899379034842,
            5.5
          ]
        ]
      },
      "properties": {
        "temperatura_C": 22.0,
        "label": "22 \u00b0C"
      }
    },
    {
      "type": "Feature",
      "geometry": {
        "type": "LineString",
        "coordinates": [
          [
            -75.33261975308571,
            4.0
          ],
          [
            -75.25,
            4.171867535384505
          ],
          [
            -75.17509715158724,
            4.25
          ],
          [
            -75.05490113821294,
            4.5
          ],
          [
            -75.0,
            4.639045861833798
          ]
        ]
      },
      "properties": {
        "temperatura_C": 22.0,
        "label": "22 \u00b0C"
      }
    },
    {
      "type": "Feature",
      "geometry": {
        "type": "LineString",
        "coordinates": [
          [
            -76.28474576092547,
            5.5
          ],
          [
            -76.35350658020526,
            5.25
          ],
          [
            -76.41261119763713,
            5.0
          ],
          [
            -76.46421423569062,
            4.75
          ],
          [
            -76.5,
            4.6715776416407495
          ]
        ]
      },
      "properties": {
        "temperatura_C": 23.0,
        "label": "23 \u00b0C"
      }
    },
    {
      "type": "Feature",
      "geometry": {
        "type": "LineString",
        "coordinates": [
          [
            -75.29518014128404,
            4.0
          ],
          [
            -75.25,
            4.093984782582861
          ],
          [
            -75.10043369311606,
            4.25
          ],
          [
            -75.0199559852959,
            4.5
          ],
          [
            -75.0,
            4.550541705773918
          ]
        ]
      },
      "properties": {
        "temperatura_C": 23.0,
        "label": "23 \u00b0C"
      }
    },
    {
      "type": "Feature",
      "geometry": {
        "type": "LineString",
        "coordinates": [
          [
            -76.34000423696659,
            5.5
          ],
          [
            -76.40660191783574,
            5.250000000000001
          ],
          [
            -76.47008318775913,
            5.0
          ],
          [
            -76.5,
            4.8705322241535045
          ]
        ]
      },
      "properties": {
        "temperatura_C": 24.0,
        "label": "24 \u00b0C"
      }
    },
    {
      "type": "Feature",
      "geometry": {
        "type": "LineString",
        "coordinates": [
          [
            -75.25774052948235,
            4.0
          ],
          [
            -75.25,
            4.016102029781216
          ],
          [
            -75.02577023464487,
            4.25
          ],
          [
            -75.0,
            4.361470786804783
          ]
        ]
      },
      "properties": {
        "temperatura_C": 24.0,
        "label": "24 \u00b0C"
      }
    },
    {
      "type": "Feature",
      "geometry": {
        "type": "LineString",
        "coordinates": [
          [
            -76.3952627130077,
            5.5
          ],
          [
            -76.45969725546622,
            5.25
          ],
          [
            -76.5,
            5.096779807188838
          ]
        ]
      },
      "properties": {
        "temperatura_C": 25.0,
        "label": "25 \u00b0C"
      }
    },
    {
      "type": "Feature",
      "geometry": {
        "type": "LineString",
        "coordinates": [
          [
            -75.19118391599807,
            4.0
          ],
          [
            -75.0,
            4.199367628103976
          ]
        ]
      },
      "properties": {
        "temperatura_C": 25.0,
        "label": "25 \u00b0C"
      }
    },
    {
      "type": "Feature",
      "geometry": {
        "type": "LineString",
        "coordinates": [
          [
            -76.45052118904881,
            5.5
          ],
          [
            -76.5,
            5.303006943943227
          ]
        ]
      },
      "properties": {
        "temperatura_C": 26.0,
        "label": "26 \u00b0C"
      }
    },
    {
      "type": "Feature",
      "geometry": {
        "type": "LineString",
        "coordinates": [
          [
            -75.11703848183784,
            4.0
          ],
          [
            -75.0,
            4.122048365831861
          ]
        ]
      },
      "properties": {
        "temperatura_C": 26.0,
        "label": "26 \u00b0C"
      }
    },
    {
      "type": "Feature",
      "geometry": {
        "type": "LineString",
        "coordinates": [
          [
            -75.04289304767761,
            4.0
          ],
          [
            -75.0,
            4.044729103559747
          ]
        ]
      },
      "properties": {
        "temperatura_C": 27.0,
        "label": "27 \u00b0C"
      }
    }
  ]
}